[{"OBJECT_NAME":"TIANMU-1 19","OBJECT_ID":"2023-208A","EPOCH":"2026-03-09T22:13:36.801696","MEAN_MOTION":15.2984143,"ECCENTRICITY":0.00039292,"INCLINATION":97.4383,"RA_OF_ASC_NODE":184.9132,"ARG_OF_PERICENTER":316.2611,"MEAN_ANOMALY":43.8317,"EPHEMERIS_TYPE":0,"CLASSIFICATION_TYPE":"U","NORAD_CAT_ID":58660,"ELEMENT_SET_NO":999,"REV_AT_EPOCH":12214,"BSTAR":0.00040995676,"MEAN_MOTION_DOT":0.00011779,"MEAN_MOTION_DDOT":0},{"OBJECT_NAME":"STARLINK-31936","OBJECT_ID":"2024-098T","EPOCH":"2026-03-09T12:54:48.281184","MEAN_MOTION":15.27575371,"ECCENTRICITY":0.00011523,"INCLINATION":43.0038,"RA_OF_ASC_NODE":246.5196,"ARG_OF_PERICENTER":272.6607,"MEAN_ANOMALY":87.4113,"EPHEMERIS_TYPE":0,"CLASSIFICATION_TYPE":"U","NORAD_CAT_ID":59875,"ELEMENT_SET_NO":999,"REV_AT_EPOCH":10218,"BSTAR":3.3307489e-5,"MEAN_MOTION_DOT":6.54e-6,"MEAN_MOTION_DDOT":0}]
